TIANYAN 01              
1 44881U 19093C   24144.49293112  .00002244  00000+0  27757-3 0  9995
2 44881  97.8285 221.7515 0015374  47.8635 312.3883 14.83680566239382
RS-44 & BREEZE-KM R/B   
1 44909U 19096E   24143.85983068  .00000022  00000+0  33957-4 0  9996
2 44909  82.5183 121.6050 0218572 110.2987 252.1751 12.79729989205736
BY70-2                  
1 45857U 20042B   24144.51670484  .00137789  00000+0  53893-2 0  9991
2 45857  97.9077 236.5451 0009660 269.9849  90.0280 15.25202823210781
SALSAT                  
1 46495U 20068K   24143.87769817  .00009419  00000+0  53899-3 0  9990
2 46495  97.8151 102.5435 0015462  46.7859 313.4659 15.12775817200487
UVSQ-SAT                
1 47438U 21006AB  24144.13116574  .00054255  00000+0  11279-2 0  9990
2 47438  97.3283 204.3199 0005066 292.6969  67.3744 15.45463600184860
LEDSAT                  
1 49069U 21073D   24144.17715323  .00018866  00000+0  77674-3 0  9997
2 49069  97.4387 215.4891 0019195  16.0072 344.1768 15.23995371152645
XW-3 (CAS-9)            
1 50466U 21131B   24144.52213282  .00001328  00000+0  43921-3 0  9994
2 50466  98.5277 229.7072 0004130 183.7100 176.4058 14.39614469126454
TEVEL-3                 
1 50988U 22002E   24144.50197679  .00156792  00000+0  18529-2 0  9991
2 50988  97.3790 219.2458 0002397 160.6146 199.5202 15.60777475131195
TEVEL-8                 
1 50989U 22002F   24144.47700772  .00153285  00000+0  18251-2 0  9998
2 50989  97.3815 219.3112 0002596 160.6389 199.4967 15.60591954131184
TEVEL-5                 
1 50998U 22002Q   24144.45595851  .00191358  00000+0  18448-2 0  9997
2 50998  97.3782 220.4509 0001995 181.3356 178.7899 15.65895072131273
TEVEL-6                 
1 50999U 22002R   24144.46257241  .00190854  00000+0  18561-2 0  9993
2 50999  97.3775 220.4230 0002017 181.5015 178.6240 15.65676519131279
TEVEL-1                 
1 51013U 22002AF  24144.46612754  .00147497  00000+0  17600-2 0  9993
2 51013  97.3781 219.0698 0002274 157.0044 203.1316 15.60555049131188
TEVEL-7                 
1 51062U 22002CG  24144.46541380  .00151741  00000+0  17949-2 0  9996
2 51062  97.3798 219.2743 0002228 158.6182 201.5169 15.60770036131185
TEVEL-4                 
1 51063U 22002CH  24144.50364822  .00152354  00000+0  18348-2 0  9991
2 51063  97.3803 219.2148 0002180 154.2291 205.9075 15.60296227131181
TEVEL-2                 
1 51069U 22002CP  24144.49979755  .00157088  00000+0  18534-2 0  9998
2 51069  97.3786 219.2112 0002274 161.0103 199.1239 15.60819100131198
GREENCUBE               
1 53106U 22080B   24143.44283041 -.00000003  00000+0  00000+0 0  9999
2 53106  70.1379 201.4638 0007708 112.7350 247.4125  6.42557493 43613
MIET-AIS (RS28S)        
1 53377U 22096H   24144.06385484  .00474783  88646-4  14925-2 0  9999
2 53377  97.3825  64.5192 0007642 138.1064 222.0796 15.91326770100493
KAI-1 (RS26S)           
1 53378U 22096J   24144.50346869  .00114332  00000+0  11277-2 0  9994
2 53378  97.3975  62.0912 0005060 108.3947 251.7863 15.65553939100364
ISOI (RS19S)            
1 53381U 22096M   24144.03130623  .00610474  15959-3  14763-2 0  9999
2 53381  97.3857  65.4902 0007669 151.2567 208.9133 15.96325798100554
SIREN (RS30S)           
1 53384U 22096Q   24144.08760273  .00229549  00000+0  13513-2 0  9995
2 53384  97.3909  63.6219 0005856 136.1381 224.0351 15.77546681100431
CAS-5A (FO-118)         
1 54684U 22167C   24144.53575033  .00033094  00000+0  11799-2 0  9998
2 54684  97.6027 288.8099 0010577 228.4048 131.6286 15.28783020 80531
STRATOSAT-TK 1 (RS52S)  
1 57167U 23091B   24144.53559756  .00018844  00000+0  11077-2 0  9993
2 57167  97.6132 197.6852 0015589 197.9667 162.1014 15.11623735 49830
UMKA 1 (RS40S)          
1 57172U 23091G   24144.50563425  .00008157  00000+0  54339-3 0  9999
2 57172  97.6125 196.8037 0016662 201.4432 158.6100 15.07249516 49773
CUBESX-HSE 3 (RS42S)    
1 57178U 23091N   24144.48261646  .00011212  00000+0  72028-3 0  9993
2 57178  97.6172 197.1453 0017314 195.1320 164.9392 15.08484791 49788
MONITOR-4 (RS57S)       
1 57182U 23091S   24144.52909845  .00009811  00000+0  63832-3 0  9998
2 57182  97.6157 197.0342 0017648 195.6370 164.4316 15.08051013 49780
MONITOR-2 (RS39S)       
1 57184U 23091U   24144.40515850  .00006268  00000+0  41717-3 0  9997
2 57184  97.6167 197.0664 0014165 188.4420 171.6572 15.07406728 49776
SVYATOBOR 1 (RS60S)     
1 57187U 23091X   24144.51823078  .00008890  00000+0  56764-3 0  9997
2 57187  97.6161 197.5363 0013855 186.1041 174.0021 15.08821667 49818
VIZARD-METEO (RS38S)    
1 57189U 23091Z   24144.49567765  .00012521  00000+0  76998-3 0  9991
2 57189  97.6156 197.8411 0012911 183.8237 176.2896 15.10111675 49834
NANOZOND 1 (RS49S)      
1 57190U 23091AA  24144.47063241  .00016680  00000+0  96131-3 0  9992
2 57190  97.6133 198.2242 0011387 186.5470 173.5614 15.12412090 49861
POLYTECH-UNIVERSE 3 (R*)
1 57191U 23091AB  24144.47488984  .00006841  00000+0  45506-3 0  9996
2 57191  97.6133 196.8337 0019044 207.5384 152.4836 15.07329434 49772
UTMN 2 (RS27S)          
1 57203U 23091AP  24144.47894644  .00010876  00000+0  67766-3 0  9999
2 57203  97.6159 197.7073 0013200 183.4189 176.6952 15.09666000 49822
ARCCUBE 1 (RS25S)       
1 57205U 23091AR  24144.53132247  .00018950  00000+0  10618-2 0  9996
2 57205  97.6102 198.3617 0011605 188.0702 172.0344 15.13394306 49885
KUZGTU 1 (RS47S)        
1 57217U 23091AV  24144.42270067  .00010643  00000+0  68639-3 0  9998
2 57217  97.6146 196.9650 0017246 197.0233 163.0419 15.08356712 49777
HADES-D (SO-121)        
1 58567U 23174CY  24144.18114368  .00049829  00000+0  18488-2 0  9997
2 58567  97.4554 219.8770 0011091 310.7073  49.3201 15.27367616 29963
CUTE-1 (CO-55)          
1 27844U 03031E   24143.99310065  .00000832  00000+0  38688-3 0  9997
2 27844  98.6772 151.3741 0009025 211.4912 148.5727 14.23244521 84233
CUBESAT XI-IV (CO-57)   
1 27848U 03031J   24143.98768620  .00000715  00000+0  33897-3 0  9991
2 27848  98.6800 151.6275 0008649 228.7842 131.2591 14.22688779 84007
CUBESAT XI-V            
1 28895U 05043F   24143.94740860  .00003458  00000+0  61618-3 0  9990
2 28895  98.1976 279.7458 0016865  78.9884 281.3216 14.67607309990987
CUTE-1.7+APD II (CO-65) 
1 32785U 08021C   24143.87792429  .00007263  00000+0  64375-3 0  9993
2 32785  97.7534 109.4256 0012802  56.1652 304.0785 14.96462878871690
AAUSAT-II               
1 32788U 08021F   24143.91196854  .00025976  00000+0  13367-2 0  9996
2 32788  97.5928 124.1009 0002976 241.9898 118.1034 15.16405462874597
SEEDS II (CO-66)        
1 32791U 08021J   24144.44527106  .00012318  00000+0  90920-3 0  9994
2 32791  97.6903 115.7654 0007147  53.2862 306.9019 15.03386576872887
SWISSCUBE               
1 35932U 09051B   24144.20122868  .00002310  00000+0  50200-3 0  9996
2 35932  98.4748  27.0119 0008226  43.3053 316.8791 14.59007800778955
BEESAT-1                
1 35933U 09051C   24144.20148162  .00002066  00000+0  45268-3 0  9998
2 35933  98.4674  27.9535 0006725  55.9254 304.2582 14.58749354779067
ITUPSAT1                
1 35935U 09051E   24144.19827111  .00001889  00000+0  42417-3 0  9991
2 35935  98.4770  27.7488 0009061  59.6984 300.5110 14.57710299778653
TISAT 1                 
1 36799U 10035E   24144.23495412  .00011535  00000+0  88163-3 0  9991
2 36799  98.0943  32.5910 0003911 321.7965  38.2981 15.02108114753511
M-CUBED & EXP-1 PRIME   
1 37855U 11061F   24144.04870821  .00245367  00000+0  15099-2 0  9994
2 37855 101.6861 314.3124 0036687  45.9813 314.4449 15.75529431689555
AEROCUBE 4.5A           
1 38767U 12048K   24144.07041008  .00020255  00000+0  11118-2 0  9998
2 38767  64.6624  34.9049 0106076  27.2717 333.3917 15.09430824256677
AEROCUBE 4.5B           
1 38768U 12048L   24143.85068651  .00031806  00000+0  11881-2 0  9998
2 38768  64.6560 322.8182 0086285  14.9002 345.4637 15.23753906257560
STRAND-1                
1 39090U 13009E   24143.49738819  .00000850  00000+0  30671-3 0  9999
2 39090  98.3817 332.4928 0008333 337.0645  23.0168 14.36054963588557
BRITE-AUSTRIA           
1 39091U 13009F   24144.09584414  .00000534  00000+0  19922-3 0  9992
2 39091  98.3860 332.3440 0009921 341.2735  18.8085 14.35795040588675
NEE-01 PEGASO           
1 39151U 13018B   24144.29382963  .00005031  00000+0  58604-3 0  9993
2 39151  98.0338 261.1679 0016160 119.6077 240.6750 14.85614161598282
ESTCUBE 1               
1 39161U 13021C   24144.12865644  .00003649  00000+0  53337-3 0  9993
2 39161  97.8294 211.3564 0007816 316.8806  43.1791 14.76281729593433
POPACS 1                
1 39268U 13055D   24143.40018279  .00043902  00000+0  78189-3 0  9990
2 39268  80.9818 180.7912 0416935 175.4468 185.0743 14.90092519558168
POPACS 2                
1 39269U 13055E   24143.79237794  .00020151  00000+0  46343-3 0  9996
2 39269  81.0029 266.9400 0553704  40.4529 323.6485 14.56346670551909
POPACS 3                
1 39270U 13055F   24142.94035217  .00019973  00000+0  55105-3 0  9996
2 39270  81.0081 317.6918 0630510 182.6049 177.1815 14.36334918549898
ZACUBE-1 (TSHEPISOSAT)  
1 39417U 13066B   24143.85436129  .00005979  00000+0  62711-3 0  9991
2 39417  97.7326 100.4003 0049099 243.4394 116.1786 14.89003811567810
WNISAT-1                
1 39423U 13066H   24144.54229811  .00002277  00000+0  44037-3 0  9992
2 39423  97.6714 340.8651 0171577  86.7398 275.3414 14.55220857557061
TRITON-1                
1 39427U 13066M   24144.54313872  .00004232  00000+0  59957-3 0  9997
2 39427  97.8437  63.3286 0103599 160.6604 199.8582 14.73891659562775
DELFI-N3XT              
1 39428U 13066N   24144.35400632  .00006658  00000+0  85706-3 0  9993
2 39428  97.8402  63.3516 0101918 168.1478 192.2167 14.77786979562609
